[{"OBJECT_NAME":"STARLINK-31965","OBJECT_ID":"2024-100D","EPOCH":"2026-03-09T05:23:43.313568","MEAN_MOTION":15.27607133,"ECCENTRICITY":0.00018194,"INCLINATION":43.0016,"RA_OF_ASC_NODE":128.2074,"ARG_OF_PERICENTER":279.596,"MEAN_ANOMALY":80.4686,"EPHEMERIS_TYPE":0,"CLASSIFICATION_TYPE":"U","NORAD_CAT_ID":59888,"ELEMENT_SET_NO":999,"REV_AT_EPOCH":10098,"BSTAR":0.00078938859,"MEAN_MOTION_DOT":0.00021542,"MEAN_MOTION_DDOT":0},{"OBJECT_NAME":"AIST-2 (RS43)","OBJECT_ID":"2013-015D","EPOCH":"2026-03-09T22:52:25.813056","MEAN_MOTION":15.25079544,"ECCENTRICITY":0.00239979,"INCLINATION":64.8687,"RA_OF_ASC_NODE":221.5348,"ARG_OF_PERICENTER":248.8384,"MEAN_ANOMALY":111.0181,"EPHEMERIS_TYPE":0,"CLASSIFICATION_TYPE":"U","NORAD_CAT_ID":39133,"ELEMENT_SET_NO":999,"REV_AT_EPOCH":70876,"BSTAR":0.00037899099,"MEAN_MOTION_DOT":9.402e-5,"MEAN_MOTION_DDOT":0}]
